{
  "norad_id": 48130,
  "name": "STARLINK-2472",
  "history": [
    {
      "epoch": "2026-05-04T16:15:43.178976Z",
      "apogee_km": 471.585070278923,
      "perigee_km": 469.93174692728553,
      "latitude_deg": -2.6467579162014827e-05,
      "longitude_deg": 161.3800864875066,
      "height_km": 471.59956071816754,
      "semi_major_axis_km": 6848.8954086031035,
      "eccentricity": 0.0001207,
      "inclination_deg": 53.1597,
      "raan_deg": 267.8735,
      "arg_perigee_deg": 86.0067,
      "mean_anomaly_deg": 274.1072,
      "mean_motion_rev_day": 15.31693823
    },
    {
      "epoch": "2026-05-05T15:45:07.865856Z",
      "apogee_km": 471.4917495434711,
      "perigee_km": 469.8370791217685,
      "latitude_deg": -5.911470922942529e-05,
      "longitude_deg": 163.50708862306695,
      "height_km": 471.4618988767713,
      "semi_major_axis_km": 6848.80141433262,
      "eccentricity": 0.0001208,
      "inclination_deg": 53.1591,
      "raan_deg": 263.3181,
      "arg_perigee_deg": 82.9742,
      "mean_anomaly_deg": 277.1396,
      "mean_motion_rev_day": 15.31725355
    },
    {
      "epoch": "2026-05-06T08:58:41.388096Z",
      "apogee_km": 471.04510476085943,
      "perigee_km": 470.3237868861852,
      "latitude_deg": -1.0871615068327927e-05,
      "longitude_deg": -98.93189997931044,
      "height_km": 471.27093400769866,
      "semi_major_axis_km": 6848.8214458235225,
      "eccentricity": 5.266e-05,
      "inclination_deg": 53.1601,
      "raan_deg": 259.9762,
      "arg_perigee_deg": 29.6255,
      "mean_anomaly_deg": 330.4776,
      "mean_motion_rev_day": 15.31718635
    },
    {
      "epoch": "2026-05-07T17:51:52.200288Z",
      "apogee_km": 471.5525625576847,
      "perigee_km": 469.9554011807131,
      "latitude_deg": 2.113607564623995e-05,
      "longitude_deg": 120.04237424887624,
      "height_km": 471.82923562860174,
      "semi_major_axis_km": 6848.890981869199,
      "eccentricity": 0.0001166,
      "inclination_deg": 53.1604,
      "raan_deg": 253.5961,
      "arg_perigee_deg": 102.7598,
      "mean_anomaly_deg": 257.3534,
      "mean_motion_rev_day": 15.31695308
    },
    {
      "epoch": "2026-05-08T12:39:23.832288Z",
      "apogee_km": 471.4253688126537,
      "perigee_km": 470.03504876926854,
      "latitude_deg": 2.727682523704957e-05,
      "longitude_deg": -166.25538848963984,
      "height_km": 471.6358324146525,
      "semi_major_axis_km": 6848.867208790961,
      "eccentricity": 0.0001015,
      "inclination_deg": 53.1584,
      "raan_deg": 249.9519,
      "arg_perigee_deg": 90.5599,
      "mean_anomaly_deg": 269.5519,
      "mean_motion_rev_day": 15.31703283
    },
    {
      "epoch": "2026-05-09T15:16:44.293728Z",
      "apogee_km": 471.4608070402992,
      "perigee_km": 470.07047980368407,
      "latitude_deg": 3.2943840200920034e-05,
      "longitude_deg": 148.15181606684274,
      "height_km": 471.6415839805591,
      "semi_major_axis_km": 6848.902643421991,
      "eccentricity": 0.0001015,
      "inclination_deg": 53.1584,
      "raan_deg": 244.7877,
      "arg_perigee_deg": 88.1134,
      "mean_anomaly_deg": 271.9984,
      "mean_motion_rev_day": 15.31691396
    },
    {
      "epoch": "2026-05-10T16:20:06.312768Z",
      "apogee_km": 471.5043616398498,
      "perigee_km": 469.96884417807905,
      "latitude_deg": -5.5027790082696316e-05,
      "longitude_deg": 126.42108498375288,
      "height_km": 471.5991499865734,
      "semi_major_axis_km": 6848.873602908964,
      "eccentricity": 0.0001121,
      "inclination_deg": 53.1604,
      "raan_deg": 239.9278,
      "arg_perigee_deg": 87.2848,
      "mean_anomaly_deg": 272.8281,
      "mean_motion_rev_day": 15.31701138
    },
    {
      "epoch": "2026-05-11T15:49:30.915840Z",
      "apogee_km": 471.4402024807405,
      "perigee_km": 470.0430312428998,
      "latitude_deg": -1.9151145188064777e-05,
      "longitude_deg": 128.54649161318883,
      "height_km": 471.6280896878903,
      "semi_major_axis_km": 6848.87861686182,
      "eccentricity": 0.000102,
      "inclination_deg": 53.1602,
      "raan_deg": 235.3704,
      "arg_perigee_deg": 88.9706,
      "mean_anomaly_deg": 271.1412,
      "mean_motion_rev_day": 15.31699456
    },
    {
      "epoch": "2026-05-12T15:18:54.550368Z",
      "apogee_km": 471.40985506573634,
      "perigee_km": 469.9948848519025,
      "latitude_deg": 4.265539796655189e-05,
      "longitude_deg": 130.67616489770413,
      "height_km": 471.55350498176244,
      "semi_major_axis_km": 6848.83936995882,
      "eccentricity": 0.0001033,
      "inclination_deg": 53.1601,
      "raan_deg": 230.8132,
      "arg_perigee_deg": 86.1211,
      "mean_anomaly_deg": 273.9909,
      "mean_motion_rev_day": 15.31712622
    },
    {
      "epoch": "2026-05-13T13:14:21.854112Z",
      "apogee_km": 471.9770365105578,
      "perigee_km": 469.44570215325257,
      "latitude_deg": -1.2327072852121844e-05,
      "longitude_deg": 156.65356188667707,
      "height_km": 471.06170693577894,
      "semi_major_axis_km": 6848.848369331905,
      "eccentricity": 0.0001848,
      "inclination_deg": 53.1639,
      "raan_deg": 226.5548,
      "arg_perigee_deg": 64.3333,
      "mean_anomaly_deg": 295.7859,
      "mean_motion_rev_day": 15.31709603
    },
    {
      "epoch": "2026-05-14T06:27:55.376352Z",
      "apogee_km": 471.3669740493051,
      "perigee_km": 470.0406275398236,
      "latitude_deg": 6.225369941000557e-05,
      "longitude_deg": -105.7783039951863,
      "height_km": 471.6334545745656,
      "semi_major_axis_km": 6848.8408007945645,
      "eccentricity": 9.683e-05,
      "inclination_deg": 53.1599,
      "raan_deg": 223.22,
      "arg_perigee_deg": 92.6447,
      "mean_anomaly_deg": 267.4666,
      "mean_motion_rev_day": 15.31712142
    }
  ]
}